{
  "type": "FeatureCollection",
  "features": [
    {
      "type": "Feature",
      "properties": {
        "norad_id": 33805,
        "name": "COSMOS 2251 DEB",
        "group": "cosmos-2251-debris",
        "lat": 16.01929137642286,
        "lon": -53.77467239871307,
        "alt_km": 716.2591103601817,
        "timestamp": "2025-12-17T21:39:46.082402+00:00",
        "meta_object_name": "COSMOS 2251 DEB",
        "meta_object_id": "1993-036AW",
        "meta_epoch": "2025-12-17T06:45:49.553856",
        "meta_mean_motion": 14.57866145,
        "meta_eccentricity": 0.00600635,
        "meta_inclination": 74.031,
        "meta_ra_of_asc_node": 302.69,
        "meta_arg_of_pericenter": 130.3362,
        "meta_mean_anomaly": 230.3071,
        "meta_ephemeris_type": 0,
        "meta_classification_type": "U",
        "meta_norad_cat_id": 33805,
        "meta_element_set_no": 999,
        "meta_rev_at_epoch": 89293,
        "meta_bstar": 0.000209017,
        "meta_mean_motion_dot": 9.51e-06,
        "meta_mean_motion_ddot": 0,
        "tle_line1": "1 33805U 93036AW  25351.28182354  .00000951  00000+0  20902-3 0  9999",
        "tle_line2": "2 33805  74.0310 302.6900 0060063 130.3362 230.3071 14.57866145892933"
      },
      "geometry": {
        "type": "Point",
        "coordinates": [
          -53.77467239871307,
          16.01929137642286
        ]
      }
    },
    {
      "type": "Feature",
      "properties": {
        "norad_id": 33811,
        "name": "COSMOS 2251 DEB",
        "group": "cosmos-2251-debris",
        "lat": 45.259624548023616,
        "lon": -51.03549952573211,
        "alt_km": 528.5670870047588,
        "timestamp": "2025-12-17T21:39:46.082412+00:00",
        "meta_object_name": "COSMOS 2251 DEB",
        "meta_object_id": "1993-036BC",
        "meta_epoch": "2025-12-17T13:59:43.981152",
        "meta_mean_motion": 15.05409965,
        "meta_eccentricity": 0.00309102,
        "meta_inclination": 73.8376,
        "meta_ra_of_asc_node": 292.6099,
        "meta_arg_of_pericenter": 12.8418,
        "meta_mean_anomaly": 104.094,
        "meta_ephemeris_type": 0,
        "meta_classification_type": "U",
        "meta_norad_cat_id": 33811,
        "meta_element_set_no": 999,
        "meta_rev_at_epoch": 90091,
        "meta_bstar": 0.00082967124,
        "meta_mean_motion_dot": 0.00012009,
        "meta_mean_motion_ddot": 0,
        "tle_line1": "1 33811U 93036BC  25351.58314793  .00012009  00000+0  82967-3 0  9999",
        "tle_line2": "2 33811  73.8376 292.6099 0030910  12.8418 104.0940 15.05409965900917"
      },
      "geometry": {
        "type": "Point",
        "coordinates": [
          -51.03549952573211,
          45.259624548023616
        ]
      }
    },
    {
      "type": "Feature",
      "properties": {
        "norad_id": 33815,
        "name": "COSMOS 2251 DEB",
        "group": "cosmos-2251-debris",
        "lat": 4.46922332634415,
        "lon": 167.01587584150806,
        "alt_km": 509.8413634177941,
        "timestamp": "2025-12-17T21:39:46.082422+00:00",
        "meta_object_name": "COSMOS 2251 DEB",
        "meta_object_id": "1993-036BG",
        "meta_epoch": "2025-12-17T14:02:28.317408",
        "meta_mean_motion": 15.19294071,
        "meta_eccentricity": 0.00014429,
        "meta_inclination": 73.9511,
        "meta_ra_of_asc_node": 166.3947,
        "meta_arg_of_pericenter": 276.4703,
        "meta_mean_anomaly": 152.0724,
        "meta_ephemeris_type": 0,
        "meta_classification_type": "U",
        "meta_norad_cat_id": 33815,
        "meta_element_set_no": 999,
        "meta_rev_at_epoch": 88444,
        "meta_bstar": 0.0052595271,
        "meta_mean_motion_dot": 0.00112755,
        "meta_mean_motion_ddot": 0,
        "tle_line1": "1 33815U 93036BG  25351.58504997  .00112755  00000+0  52595-2 0  9992",
        "tle_line2": "2 33815  73.9511 166.3947 0001442 276.4703 152.0724 15.19294071884442"
      },
      "geometry": {
        "type": "Point",
        "coordinates": [
          167.01587584150806,
          4.46922332634415
        ]
      }
    },
    {
      "type": "Feature",
      "properties": {
        "norad_id": 33816,
        "name": "COSMOS 2251 DEB",
        "group": "cosmos-2251-debris",
        "lat": -24.69878305994108,
        "lon": -75.71878074307047,
        "alt_km": 981.6447289429207,
        "timestamp": "2025-12-17T21:39:46.082432+00:00",
        "meta_object_name": "COSMOS 2251 DEB",
        "meta_object_id": "1993-036BH",
        "meta_epoch": "2025-12-17T13:44:56.266944",
        "meta_mean_motion": 13.81789038,
        "meta_eccentricity": 0.02644526,
        "meta_inclination": 73.8953,
        "meta_ra_of_asc_node": 97.2043,
        "meta_arg_of_pericenter": 109.184,
        "meta_mean_anomaly": 253.8105,
        "meta_ephemeris_type": 0,
        "meta_classification_type": "U",
        "meta_norad_cat_id": 33816,
        "meta_element_set_no": 999,
        "meta_rev_at_epoch": 84740,
        "meta_bstar": 0.00031102512,
        "meta_mean_motion_dot": 4.13e-06,
        "meta_mean_motion_ddot": 0,
        "tle_line1": "1 33816U 93036BH  25351.57287346  .00000413  00000+0  31103-3 0  9998",
        "tle_line2": "2 33816  73.8953  97.2043 0264452 109.1840 253.8105 13.81789038847404"
      },
      "geometry": {
        "type": "Point",
        "coordinates": [
          -75.71878074307047,
          -24.69878305994108
        ]
      }
    },
    {
      "type": "Feature",
      "properties": {
        "norad_id": 33818,
        "name": "COSMOS 2251 DEB",
        "group": "cosmos-2251-debris",
        "lat": 37.921427757798874,
        "lon": -37.28511353538243,
        "alt_km": 506.3787580946655,
        "timestamp": "2025-12-17T21:39:46.082442+00:00",
        "meta_object_name": "COSMOS 2251 DEB",
        "meta_object_id": "1993-036BK",
        "meta_epoch": "2025-12-17T13:23:41.314848",
        "meta_mean_motion": 15.12876604,
        "meta_eccentricity": 0.00259261,
        "meta_inclination": 74.0762,
        "meta_ra_of_asc_node": 156.2789,
        "meta_arg_of_pericenter": 143.0759,
        "meta_mean_anomaly": 281.6509,
        "meta_ephemeris_type": 0,
        "meta_classification_type": "U",
        "meta_norad_cat_id": 33818,
        "meta_element_set_no": 999,
        "meta_rev_at_epoch": 89935,
        "meta_bstar": 0.0019017212,
        "meta_mean_motion_dot": 0.00033857,
        "meta_mean_motion_ddot": 0,
        "tle_line1": "1 33818U 93036BK  25351.55811707  .00033857  00000+0  19017-2 0  9999",
        "tle_line2": "2 33818  74.0762 156.2789 0025926 143.0759 281.6509 15.12876604899357"
      },
      "geometry": {
        "type": "Point",
        "coordinates": [
          -37.28511353538243,
          37.921427757798874
        ]
      }
    },
    {
      "type": "Feature",
      "properties": {
        "norad_id": 33819,
        "name": "COSMOS 2251 DEB",
        "group": "cosmos-2251-debris",
        "lat": -29.198656162420242,
        "lon": 29.625162704881824,
        "alt_km": 845.06626933599,
        "timestamp": "2025-12-17T21:39:46.082451+00:00",
        "meta_object_name": "COSMOS 2251 DEB",
        "meta_object_id": "1993-036BL",
        "meta_epoch": "2025-12-17T15:57:22.665888",
        "meta_mean_motion": 14.32240421,
        "meta_eccentricity": 0.00892593,
        "meta_inclination": 74.1782,
        "meta_ra_of_asc_node": 200.937,
        "meta_arg_of_pericenter": 60.7722,
        "meta_mean_anomaly": 3.6132,
        "meta_ephemeris_type": 0,
        "meta_classification_type": "U",
        "meta_norad_cat_id": 33819,
        "meta_element_set_no": 999,
        "meta_rev_at_epoch": 87566,
        "meta_bstar": 0.00046912085,
        "meta_mean_motion_dot": 1.298e-05,
        "meta_mean_motion_ddot": 0,
        "tle_line1": "1 33819U 93036BL  25351.66484567  .00001298  00000+0  46912-3 0  9991",
        "tle_line2": "2 33819  74.1782 200.9370 0089259  60.7722   3.6132 14.32240421875663"
      },
      "geometry": {
        "type": "Point",
        "coordinates": [
          29.625162704881824,
          -29.198656162420242
        ]
      }
    },
    {
      "type": "Feature",
      "properties": {
        "norad_id": 33821,
        "name": "COSMOS 2251 DEB",
        "group": "cosmos-2251-debris",
        "lat": 0.6997278327225626,
        "lon": -48.28097630302377,
        "alt_km": 457.8672854636816,
        "timestamp": "2025-12-17T21:39:46.082461+00:00",
        "meta_object_name": "COSMOS 2251 DEB",
        "meta_object_id": "1993-036BN",
        "meta_epoch": "2025-12-17T11:26:18.798144",
        "meta_mean_motion": 15.25605991,
        "meta_eccentricity": 0.00508236,
        "meta_inclination": 74.0293,
        "meta_ra_of_asc_node": 132.8201,
        "meta_arg_of_pericenter": 164.7685,
        "meta_mean_anomaly": 195.506,
        "meta_ephemeris_type": 0,
        "meta_classification_type": "U",
        "meta_norad_cat_id": 33821,
        "meta_element_set_no": 999,
        "meta_rev_at_epoch": 75073,
        "meta_bstar": 0.001022301,
        "meta_mean_motion_dot": 0.00027021,
        "meta_mean_motion_ddot": 0,
        "tle_line1": "1 33821U 93036BN  25351.47660646  .00027021  00000+0  10223-2 0  9994",
        "tle_line2": "2 33821  74.0293 132.8201 0050823 164.7685 195.5060 15.25605991750737"
      },
      "geometry": {
        "type": "Point",
        "coordinates": [
          -48.28097630302377,
          0.6997278327225626
        ]
      }
    }
  ]
}